{"type":"FeatureCollection","features":[{"type":"Feature","properties":{"predicted_rsrp_dbm":-94.4,"uncertainty_db":10.3,"distance_m":87,"h3":"8a1f12525107fff"},"geometry":{"type":"Polygon","coordinates":[[[7.418029597528753,51.48687194891108],[7.417779743249005,51.48625107696631],[7.418540974995327,51.48586378322373],[7.419552068921582,51.48609735849138],[7.419801941392397,51.48671823109302],[7.419040701746009,51.48710552777018],[7.418029597528753,51.48687194891108]]]}},{"type":"Feature","properties":{"predicted_rsrp_dbm":-92.0,"uncertainty_db":8.8,"distance_m":54,"h3":"8a1f12525117fff"},"geometry":{"type":"Polygon","coordinates":[[[7.416768663423095,51.48601748771905],[7.416518825633664,51.48539660832082],[7.417280049479337,51.48500931751256],[7.418291119015203,51.485242903168256],[7.418540974995327,51.48586378322373],[7.417779743249005,51.48625107696631],[7.416768663423095,51.48601748771905]]]}},{"type":"Feature","properties":{"predicted_rsrp_dbm":-95.4,"uncertainty_db":7.7,"distance_m":29,"h3":"8a1f12525127fff"},"geometry":{"type":"Polygon","coordinates":[[[7.4175182063705,51.487880094785325],[7.417268353791363,51.487259230951416],[7.418029597528753,51.48687194891108],[7.419040701746009,51.48710552777018],[7.419290572516788,51.48772639226091],[7.4185293208788075,51.488113677235816],[7.4175182063705,51.487880094785325]]]}},{"type":"Feature","properties":{"predicted_rsrp_dbm":-94.9,"uncertainty_db":12.7,"distance_m":144,"h3":"8a1f1252512ffff"},"geometry":{"type":"Polygon","coordinates":[[[7.419290572516788,51.48772639226091],[7.419040701746009,51.48710552777018],[7.419801941392397,51.48671823109302],[7.420813059709083,51.48695179597183],[7.421062948671254,51.487572661119],[7.420301701125453,51.487959960731],[7.419290572516788,51.48772639226091]]]}},{"type":"Feature","properties":{"predicted_rsrp_dbm":-94.0,"uncertainty_db":6.6,"distance_m":3,"h3":"8a1f12525137fff"},"geometry":{"type":"Polygon","coordinates":[[[7.416257263675362,51.48702563811254],[7.416007427586926,51.486404766825],[7.416768663423095,51.48601748771905],[7.417779743249005,51.48625107696631],[7.418029597528753,51.48687194891108],[7.417268353791363,51.487259230951416],[7.416257263675362,51.48702563811254]]]}},{"type":"Feature","properties":{"predicted_rsrp_dbm":-91.9,"uncertainty_db":12.8,"distance_m":146,"h3":"8a1f12525187fff"},"geometry":{"type":"Polygon","coordinates":[[[7.416019164843635,51.48415483396087],[7.415769341842716,51.483533938999386],[7.4165305457974195,51.48314663942307],[7.417541580653867,51.483380231874186],[7.417791421844595,51.48400112749336],[7.417030209989158,51.484388430003776],[7.416019164843635,51.48415483396087]]]}},{"type":"Feature","properties":{"predicted_rsrp_dbm":-91.7,"uncertainty_db":8.0,"distance_m":35,"h3":"8a1f125251a7fff"},"geometry":{"type":"Polygon","coordinates":[[[7.415507770199032,51.48516300868615],[7.415257948899251,51.48454212183505],[7.416019164843635,51.48415483396087],[7.417030209989158,51.484388430003776],[7.417280049479337,51.48500931751256],[7.416518825633664,51.48539660832082],[7.415507770199032,51.48516300868615]]]}},{"type":"Feature","properties":{"predicted_rsrp_dbm":-92.1,"uncertainty_db":12.1,"distance_m":129,"h3":"8a1f125251affff"},"geometry":{"type":"Polygon","coordinates":[[[7.417280049479337,51.48500931751256],[7.417030209989158,51.484388430003776],[7.417791421844595,51.48400112749336],[7.418802481090423,51.48423470955746],[7.419052338770738,51.48485559772348],[7.418291119015203,51.485242903168256],[7.417280049479337,51.48500931751256]]]}},{"type":"Feature","properties":{"predicted_rsrp_dbm":-90.8,"uncertainty_db":10.8,"distance_m":100,"h3":"8a1f125251b7fff"},"geometry":{"type":"Polygon","coordinates":[[[7.414246917855792,51.484308511813786],[7.413997113044986,51.48368761751038],[7.414758321087444,51.48330033257006],[7.415769341842716,51.483533938999386],[7.416019164843635,51.48415483396087],[7.415257948899251,51.48454212183505],[7.414246917855792,51.484308511813786]]]}},{"type":"Feature","properties":{"predicted_rsrp_dbm":-73.3,"uncertainty_db":10.4,"distance_m":90,"h3":"8a1f12525507fff"},"geometry":{"type":"Polygon","coordinates":[[[7.40920391727595,51.480890345957505],[7.408954178413995,51.480269421850544],[7.4097153548424926,51.47988214864326],[7.410726278037512,51.48011579661011],[7.410976035088299,51.48073672137673],[7.410214850755361,51.48112399751692],[7.40920391727595,51.480890345957505]]]}},{"type":"Feature","properties":{"predicted_rsrp_dbm":-75.1,"uncertainty_db":6.7,"distance_m":5,"h3":"8a1f12525527fff"},"geometry":{"type":"Polygon","coordinates":[[[7.40869246601911,51.481898523459684],[7.408442728860404,51.481277607462445],[7.40920391727595,51.480890345957505],[7.410214850755361,51.48112399751692],[7.410464606103486,51.48174491417384],[7.409703409782941,51.482132178611685],[7.40869246601911,51.481898523459684]]]}},{"type":"Feature","properties":{"predicted_rsrp_dbm":-77.8,"uncertainty_db":11.6,"distance_m":117,"h3":"8a1f1252552ffff"},"geometry":{"type":"Polygon","coordinates":[[[7.410464606103486,51.48174491417384],[7.410214850755361,51.48112399751692],[7.410976035088299,51.48073672137673],[7.411986982673258,51.4809703589604],[7.412236756210527,51.48159127627661],[7.411475563973804,51.48197855534993],[7.410464606103486,51.48174491417384]]]}},{"type":"Feature","properties":{"predicted_rsrp_dbm":-72.9,"uncertainty_db":10.9,"distance_m":80,"h3":"8a1f12525537fff"},"geometry":{"type":"Polygon","coordinates":[[[7.407431809488362,51.48104394192777],[7.407182088815473,51.480423018480906],[7.407943269325439,51.48003575990863],[7.408954178413995,51.480269421850544],[7.40920391727595,51.480890345957505],[7.408442728860404,51.481277607462445],[7.407431809488362,51.48104394192777]]]}},{"type":"Feature","properties":{"predicted_rsrp_dbm":-86.4,"uncertainty_db":7.3,"distance_m":19,"h3":"8a1f12525807fff"},"geometry":{"type":"Polygon","coordinates":[[[7.4172449600912,51.491758838796656],[7.416995096122656,51.491138006750916],[7.417756383737011,51.49075075688372],[7.418767543221689,51.490984336127475],[7.4190174253839976,51.49160516882963],[7.4182561298679435,51.49199242163166],[7.4172449600912,51.491758838796656]]]}},{"type":"Feature","properties":{"predicted_rsrp_dbm":-85.4,"uncertainty_db":11.1,"distance_m":106,"h3":"8a1f1252580ffff"},"geometry":{"type":"Polygon","coordinates":[[[7.4190174253839976,51.49160516882963],[7.418767543221689,51.490984336127475],[7.419528826744811,51.49059707162275],[7.420540000330818,51.49083063688514],[7.420789900686614,51.491451470243284],[7.420028609262973,51.49183873768306],[7.4190174253839976,51.49160516882963]]]}},{"type":"Feature","properties":{"predicted_rsrp_dbm":-80.1,"uncertainty_db":6.6,"distance_m":1,"h3":"8a1f12525817fff"},"geometry":{"type":"Polygon","coordinates":[[[7.415983950741111,51.490904413526245],[7.415734103265115,51.490283574025824],[7.41649538297714,51.48989632709318],[7.4175065180676025,51.490129916726474],[7.417756383737011,51.49075075688372],[7.416995096122656,51.491138006750916],[7.415983950741111,51.490904413526245]]]}},{"type":"Feature","properties":{"predicted_rsrp_dbm":-82.8,"uncertainty_db":11.0,"distance_m":105,"h3":"8a1f1252581ffff"},"geometry":{"type":"Polygon","coordinates":[[[7.417756383737011,51.49075075688372],[7.4175065180676025,51.490129916726474],[7.418267793689567,51.48974265515657],[7.419278942882235,51.48997623080913],[7.419528826744811,51.49059707162275],[7.418767543221689,51.490984336127475],[7.417756383737011,51.49075075688372]]]}},{"type":"Feature","properties":{"predicted_rsrp_dbm":-89.7,"uncertainty_db":6.5,"distance_m":1,"h3":"8a1f12525827fff"},"geometry":{"type":"Polygon","coordinates":[[[7.416733522751634,51.49276690089518],[7.416483660484239,51.49214607696104],[7.4172449600912,51.491758838796656],[7.4182561298679435,51.49199242163166],[7.418506010329704,51.492613246222156],[7.417744702820462,51.49300048732136],[7.416733522751634,51.49276690089518]]]}},{"type":"Feature","properties":{"predicted_rsrp_dbm":-85.7,"uncertainty_db":8.2,"distance_m":40,"h3":"8a1f1252582ffff"},"geometry":{"type":"Polygon","coordinates":[[[7.418506010329704,51.492613246222156],[7.4182561298679435,51.49199242163166],[7.4190174253839976,51.49160516882963],[7.420028609262973,51.49183873768306],[7.42027850791882,51.49245956292952],[7.4195172045016875,51.49284681866665],[7.418506010329704,51.492613246222156]]]}},{"type":"Feature","properties":{"predicted_rsrp_dbm":-87.5,"uncertainty_db":6.6,"distance_m":1,"h3":"8a1f12525837fff"},"geometry":{"type":"Polygon","coordinates":[[[7.415472504811506,51.49191248014501],[7.415222659037023,51.49129164875603],[7.415983950741111,51.490904413526245],[7.416995096122656,51.491138006750916],[7.4172449600912,51.491758838796656],[7.416483660484239,51.49214607696104],[7.415472504811506,51.49191248014501]]]}},{"type":"Feature","properties":{"predicted_rsrp_dbm":-85.1,"uncertainty_db":11.9,"distance_m":124,"h3":"8a1f12525877fff"},"geometry":{"type":"Polygon","coordinates":[[[7.42027850791882,51.49245956292952],[7.420028609262973,51.49183873768306],[7.420789900686614,51.491451470243284],[7.4218010986660445,51.49168502511471],[7.4220510155156845,51.492305851016745],[7.42128971619221,51.492693121391866],[7.42027850791882,51.49245956292952]]]}},{"type":"Feature","properties":{"predicted_rsrp_dbm":-85.5,"uncertainty_db":9.6,"distance_m":71,"h3":"8a1f12525887fff"},"geometry":{"type":"Polygon","coordinates":[[[7.41523442310364,51.48904187945946],[7.414984590417846,51.48842102439376],[7.415745850235698,51.48803376869278],[7.416756950641811,51.4882673651232],[7.4170068015201345,51.488888220846135],[7.416245533799891,51.48927547948144],[7.41523442310364,51.48904187945946]]]}},{"type":"Feature","properties":{"predicted_rsrp_dbm":-88.6,"uncertainty_db":6.7,"distance_m":5,"h3":"8a1f1252588ffff"},"geometry":{"type":"Polygon","coordinates":[[[7.4170068015201345,51.488888220846135],[7.416756950641811,51.4882673651232],[7.4175182063705,51.487880094785325],[7.4185293208788075,51.488113677235816],[7.418779189949344,51.48873453361553],[7.418017926319465,51.48912180688802],[7.4170068015201345,51.488888220846135]]]}},{"type":"Feature","properties":{"predicted_rsrp_dbm":-92.4,"uncertainty_db":8.3,"distance_m":42,"h3":"8a1f1252589ffff"},"geometry":{"type":"Polygon","coordinates":[[[7.415745850235698,51.48803376869278],[7.415496015848492,51.487412905516095],[7.416257263675362,51.48702563811254],[7.417268353791363,51.487259230951416],[7.4175182063705,51.487880094785325],[7.416756950641811,51.4882673651232],[7.415745850235698,51.48803376869278]]]}},{"type":"Feature","properties":{"predicted_rsrp_dbm":-80.8,"uncertainty_db":9.9,"distance_m":77,"h3":"8a1f125258a7fff"},"geometry":{"type":"Polygon","coordinates":[[[7.414722982278676,51.49004997041229],[7.414473151294547,51.48942912345775],[7.41523442310364,51.48904187945946],[7.416245533799891,51.48927547948144],[7.41649538297714,51.48989632709318],[7.415734103265115,51.490283574025824],[7.414722982278676,51.49004997041229]]]}},{"type":"Feature","properties":{"predicted_rsrp_dbm":-83.1,"uncertainty_db":6.8,"distance_m":7,"h3":"8a1f125258affff"},"geometry":{"type":"Polygon","coordinates":[[[7.41649538297714,51.48989632709318],[7.416245533799891,51.48927547948144],[7.4170068015201345,51.488888220846135],[7.418017926319465,51.48912180688802],[7.418267793689567,51.48974265515657],[7.4175065180676025,51.490129916726474],[7.41649538297714,51.48989632709318]]]}},{"type":"Feature","properties":{"predicted_rsrp_dbm":-90.3,"uncertainty_db":11.8,"distance_m":123,"h3":"8a1f125258d7fff"},"geometry":{"type":"Polygon","coordinates":[[[7.418779189949344,51.48873453361553],[7.4185293208788075,51.488113677235816],[7.419290572516788,51.48772639226091],[7.420301701125453,51.487959960731],[7.420551588387969,51.48858081776717],[7.419790328849997,51.48896810567686],[7.418779189949344,51.48873453361553]]]}},{"type":"Feature","properties":{"predicted_rsrp_dbm":-85.2,"uncertainty_db":11.1,"distance_m":106,"h3":"8a1f125258f7fff"},"geometry":{"type":"Polygon","coordinates":[[[7.418267793689567,51.48974265515657],[7.418017926319465,51.48912180688802],[7.418779189949344,51.48873453361553],[7.419790328849997,51.48896810567686],[7.420040214412678,51.489588954601835],[7.419278942882235,51.48997623080913],[7.418267793689567,51.48974265515657]]]}},{"type":"Feature","properties":{"predicted_rsrp_dbm":-87.5,"uncertainty_db":9.4,"distance_m":67,"h3":"8a1f12525907fff"},"geometry":{"type":"Polygon","coordinates":[[[7.4144495718698575,51.493928553938495],[7.414199729499027,51.493307738772884],[7.414961045187914,51.49292052694919],[7.415972211151804,51.49315412735659],[7.416222071717868,51.493774943178934],[7.415460748124921,51.49416215793721],[7.4144495718698575,51.493928553938495]]]}},{"type":"Feature","properties":{"predicted_rsrp_dbm":-91.4,"uncertainty_db":8.3,"distance_m":43,"h3":"8a1f1252590ffff"},"geometry":{"type":"Polygon","coordinates":[[[7.416222071717868,51.493774943178934],[7.415972211151804,51.49315412735659],[7.416733522751634,51.49276690089518],[7.417744702820462,51.49300048732136],[7.417994581581493,51.493621303800076],[7.417233262078826,51.494008533196315],[7.416222071717868,51.493774943178934]]]}},{"type":"Feature","properties":{"predicted_rsrp_dbm":-77.8,"uncertainty_db":9.8,"distance_m":76,"h3":"8a1f12525917fff"},"geometry":{"type":"Polygon","coordinates":[[[7.413188577641899,51.4930741243848],[7.412938751764049,51.492453301764584],[7.413700059548288,51.49206609287524],[7.414711201115148,51.49229970367184],[7.414961045187914,51.49292052694919],[7.414199729499027,51.493307738772884],[7.413188577641899,51.4930741243848]]]}},{"type":"Feature","properties":{"predicted_rsrp_dbm":-88.8,"uncertainty_db":6.5,"distance_m":0,"h3":"8a1f1252591ffff"},"geometry":{"type":"Polygon","coordinates":[[[7.414961045187914,51.49292052694919],[7.414711201115148,51.49229970367184],[7.415472504811506,51.49191248014501],[7.416483660484239,51.49214607696104],[7.416733522751634,51.49276690089518],[7.415972211151804,51.49315412735659],[7.414961045187914,51.49292052694919]]]}},{"type":"Feature","properties":{"predicted_rsrp_dbm":-87.5,"uncertainty_db":7.0,"distance_m":12,"h3":"8a1f12525927fff"},"geometry":{"type":"Polygon","coordinates":[[[7.4139380848568415,51.49493656111262],[7.4136882441881715,51.49431575405893],[7.4144495718698575,51.493928553938495],[7.415460748124921,51.49416215793721],[7.415710606989455,51.49478296564764],[7.4149492714031515,51.49517016870267],[7.4139380848568415,51.49493656111262]]]}},{"type":"Feature","properties":{"predicted_rsrp_dbm":-93.7,"uncertainty_db":7.0,"distance_m":11,"h3":"8a1f1252592ffff"},"geometry":{"type":"Polygon","coordinates":[[[7.415710606989455,51.49478296564764],[7.415460748124921,51.49416215793721],[7.416222071717868,51.493774943178934],[7.417233262078826,51.494008533196315],[7.417483139138887,51.49462934156306],[7.416721807642539,51.49501655925618],[7.415710606989455,51.49478296564764]]]}},{"type":"Feature","properties":{"predicted_rsrp_dbm":-78.6,"uncertainty_db":8.4,"distance_m":44,"h3":"8a1f12525937fff"},"geometry":{"type":"Polygon","coordinates":[[[7.41267708204076,51.49408213607933],[7.41242725786542,51.493461321570855],[7.413188577641899,51.4930741243848],[7.414199729499027,51.493307738772884],[7.4144495718698575,51.493928553938495],[7.4136882441881715,51.49431575405893],[7.41267708204076,51.49408213607933]]]}},{"type":"Feature","properties":{"predicted_rsrp_dbm":-94.2,"uncertainty_db":8.2,"distance_m":39,"h3":"8a1f12525947fff"},"geometry":{"type":"Polygon","coordinates":[[[7.419255681301872,51.4944756888583],[7.419005786046523,51.49385487983558],[7.419767101457392,51.49346763580131],[7.420778320024746,51.4937011978545],[7.4210282334750595,51.49432200753276],[7.420266910163173,51.49470925450236],[7.419255681301872,51.4944756888583]]]}},{"type":"Feature","properties":{"predicted_rsrp_dbm":-94.2,"uncertainty_db":7.8,"distance_m":29,"h3":"8a1f12525957fff"},"geometry":{"type":"Polygon","coordinates":[[[7.417994581581493,51.493621303800076],[7.417744702820462,51.49300048732136],[7.418506010329704,51.492613246222156],[7.4195172045016875,51.49284681866665],[7.419767101457392,51.49346763580131],[7.419005786046523,51.49385487983558],[7.417994581581493,51.493621303800076]]]}},{"type":"Feature","properties":{"predicted_rsrp_dbm":-93.8,"uncertainty_db":9.0,"distance_m":57,"h3":"8a1f1252595ffff"},"geometry":{"type":"Polygon","coordinates":[[[7.419767101457392,51.49346763580131],[7.4195172045016875,51.49284681866665],[7.42027850791882,51.49245956292952],[7.42128971619221,51.492693121391866],[7.42153963134229,51.49331393918207],[7.420778320024746,51.4937011978545],[7.419767101457392,51.49346763580131]]]}},{"type":"Feature","properties":{"predicted_rsrp_dbm":-99.4,"uncertainty_db":9.4,"distance_m":66,"h3":"8a1f12525967fff"},"geometry":{"type":"Polygon","coordinates":[[[7.418744247451752,51.49548372210021],[7.418494353896977,51.4948629211896],[7.419255681301872,51.4944756888583],[7.420266910163173,51.49470925450236],[7.420516821913519,51.49533005606851],[7.419755486607051,51.49571729133511],[7.418744247451752,51.49548372210021]]]}},{"type":"Feature","properties":{"predicted_rsrp_dbm":-99.4,"uncertainty_db":12.9,"distance_m":149,"h3":"8a1f1252596ffff"},"geometry":{"type":"Polygon","coordinates":[[[7.420516821913519,51.49533005606851],[7.420266910163173,51.49470925450236],[7.4210282334750595,51.49432200753276],[7.422039476437802,51.49455555919384],[7.422289406383455,51.49517636141515],[7.421528075171179,51.49556361132028],[7.420516821913519,51.49533005606851]]]}},{"type":"Feature","properties":{"predicted_rsrp_dbm":-95.0,"uncertainty_db":8.2,"distance_m":38,"h3":"8a1f12525977fff"},"geometry":{"type":"Polygon","coordinates":[[[7.417483139138887,51.49462934156306],[7.417233262078826,51.494008533196315],[7.417994581581493,51.493621303800076],[7.419005786046523,51.49385487983558],[7.419255681301872,51.4944756888583],[7.418494353896977,51.4948629211896],[7.417483139138887,51.49462934156306]]]}},{"type":"Feature","properties":{"predicted_rsrp_dbm":-80.4,"uncertainty_db":9.7,"distance_m":73,"h3":"8a1f12525987fff"},"geometry":{"type":"Polygon","coordinates":[[[7.4124391147981745,51.49121164095845],[7.4121893037099085,51.49059080277278],[7.412950591597466,51.49020358511444],[7.413961698478116,51.490437202707724],[7.414211527760399,51.491058041550986],[7.413450231968101,51.491445262143415],[7.4124391147981745,51.49121164095845]]]}},{"type":"Feature","properties":{"predicted_rsrp_dbm":-80.9,"uncertainty_db":7.8,"distance_m":30,"h3":"8a1f1252598ffff"},"geometry":{"type":"Polygon","coordinates":[[[7.414211527760399,51.491058041550986],[7.413961698478116,51.490437202707724],[7.414722982278676,51.49004997041229],[7.415734103265115,51.490283574025824],[7.415983950741111,51.490904413526245],[7.415222659037023,51.49129164875603],[7.414211527760399,51.491058041550986]]]}},{"type":"Feature","properties":{"predicted_rsrp_dbm":-75.9,"uncertainty_db":9.5,"distance_m":70,"h3":"8a1f12525997fff"},"geometry":{"type":"Polygon","coordinates":[[[7.411178210936836,51.490357171200216],[7.410928416339775,51.48973632556124],[7.411689696322012,51.489349110836784],[7.412700778806731,51.489582738817475],[7.412950591597466,51.49020358511444],[7.4121893037099085,51.49059080277278],[7.411178210936836,51.490357171200216]]]}},{"type":"Feature","properties":{"predicted_rsrp_dbm":-77.2,"uncertainty_db":12.3,"distance_m":134,"h3":"8a1f1252599ffff"},"geometry":{"type":"Polygon","coordinates":[[[7.412950591597466,51.49020358511444],[7.412700778806731,51.489582738817475],[7.413462054703158,51.48919550945616],[7.414473151294547,51.48942912345775],[7.414722982278676,51.49004997041229],[7.413961698478116,51.490437202707724],[7.412950591597466,51.49020358511444]]]}},{"type":"Feature","properties":{"predicted_rsrp_dbm":-74.8,"uncertainty_db":8.8,"distance_m":53,"h3":"8a1f125259a7fff"},"geometry":{"type":"Polygon","coordinates":[[[7.411927624304802,51.492219676987915],[7.411677814919194,51.49159884691368],[7.4124391147981745,51.49121164095845],[7.413450231968101,51.491445262143415],[7.413700059548288,51.49206609287524],[7.412938751764049,51.492453301764584],[7.411927624304802,51.492219676987915]]]}},{"type":"Feature","properties":{"predicted_rsrp_dbm":-85.8,"uncertainty_db":9.8,"distance_m":77,"h3":"8a1f125259affff"},"geometry":{"type":"Polygon","coordinates":[[[7.413700059548288,51.49206609287524],[7.413450231968101,51.491445262143415],[7.414211527760399,51.491058041550986],[7.415222659037023,51.49129164875603],[7.415472504811506,51.49191248014501],[7.414711201115148,51.49229970367184],[7.413700059548288,51.49206609287524]]]}},{"type":"Feature","properties":{"predicted_rsrp_dbm":-75.5,"uncertainty_db":9.6,"distance_m":71,"h3":"8a1f125259b7fff"},"geometry":{"type":"Polygon","coordinates":[[[7.410666711857759,51.49136521174927],[7.410416918963778,51.49074437422156],[7.411178210936836,51.490357171200216],[7.4121893037099085,51.49059080277278],[7.4124391147981745,51.49121164095845],[7.411677814919194,51.49159884691368],[7.410666711857759,51.49136521174927]]]}},{"type":"Feature","properties":{"predicted_rsrp_dbm":-76.3,"uncertainty_db":12.7,"distance_m":143,"h3":"8a1f12525c07fff"},"geometry":{"type":"Polygon","coordinates":[[[7.408418753254578,51.48577748723759],[7.408169004719246,51.48515660302106],[7.408930237004212,51.484769373690916],[7.4099412257307,51.48500302564422],[7.4101909924575535,51.485623910519976],[7.409429752266529,51.4860111427833],[7.408418753254578,51.48577748723759]]]}},{"type":"Feature","properties":{"predicted_rsrp_dbm":-77.0,"uncertainty_db":9.7,"distance_m":52,"h3":"8a1f12525c0ffff"},"geometry":{"type":"Polygon","coordinates":[[[7.4101909924575535,51.485623910519976],[7.4099412257307,51.48500302564422],[7.410702453932803,51.48461578167822],[7.411713456766711,51.484849419654665],[7.411963241684819,51.48547030518928],[7.41120200557787,51.48585755208866],[7.4101909924575535,51.485623910519976]]]}},{"type":"Feature","properties":{"predicted_rsrp_dbm":-75.4,"uncertainty_db":11.8,"distance_m":122,"h3":"8a1f12525c17fff"},"geometry":{"type":"Polygon","coordinates":[[[7.407158030102024,51.48492293709134],[7.406908298054343,51.48430204542416],[7.407669522432606,51.48391481902693],[7.408680486765355,51.48414848136406],[7.408930237004212,51.484769373690916],[7.408169004719246,51.48515660302106],[7.407158030102024,51.48492293709134]]]}},{"type":"Feature","properties":{"predicted_rsrp_dbm":-73.7,"uncertainty_db":7.8,"distance_m":30,"h3":"8a1f12525c1ffff"},"geometry":{"type":"Polygon","coordinates":[[[7.408930237004212,51.484769373690916],[7.408680486765355,51.48414848136406],[7.409441707061941,51.483761240331205],[7.410452685503,51.483994888692145],[7.410702453932803,51.48461578167822],[7.4099412257307,51.48500302564422],[7.408930237004212,51.484769373690916]]]}},{"type":"Feature","properties":{"predicted_rsrp_dbm":-91.8,"uncertainty_db":8.8,"distance_m":54,"h3":"8a1f12525c47fff"},"geometry":{"type":"Polygon","coordinates":[[[7.413224070318803,51.48632481086299],[7.412974268911696,51.48570393278043],[7.413735500933089,51.48531667124487],[7.414746542264729,51.485550284858014],[7.414996361863127,51.486171163598605],[7.414235121938689,51.48655842806802],[7.413224070318803,51.48632481086299]]]}},{"type":"Feature","properties":{"predicted_rsrp_dbm":-89.4,"uncertainty_db":6.7,"distance_m":4,"h3":"8a1f12525c4ffff"},"geometry":{"type":"Polygon","coordinates":[[[7.414996361863127,51.486171163598605],[7.414746542264729,51.485550284858014],[7.415507770199032,51.48516300868615],[7.416518825633664,51.48539660832082],[7.416768663423095,51.48601748771905],[7.416007427586926,51.486404766825],[7.414996361863127,51.486171163598605]]]}},{"type":"Feature","properties":{"predicted_rsrp_dbm":-97.6,"uncertainty_db":6.6,"distance_m":3,"h3":"8a1f12525c57fff"},"geometry":{"type":"Polygon","coordinates":[[[7.411963241684819,51.48547030518928],[7.411713456766711,51.484849419654665],[7.412474680884405,51.484462161052704],[7.413485697823995,51.48469578505179],[7.413735500933089,51.48531667124487],[7.412974268911696,51.48570393278043],[7.411963241684819,51.48547030518928]]]}},{"type":"Feature","properties":{"predicted_rsrp_dbm":-93.2,"uncertainty_db":6.8,"distance_m":7,"h3":"8a1f12525c5ffff"},"geometry":{"type":"Polygon","coordinates":[[[7.413735500933089,51.48531667124487],[7.413485697823995,51.48469578505179],[7.414246917855792,51.484308511813786],[7.415257948899251,51.48454212183505],[7.415507770199032,51.48516300868615],[7.414746542264729,51.485550284858014],[7.413735500933089,51.48531667124487]]]}},{"type":"Feature","properties":{"predicted_rsrp_dbm":-92.6,"uncertainty_db":10.9,"distance_m":103,"h3":"8a1f12525c67fff"},"geometry":{"type":"Polygon","coordinates":[[[7.4127126260125165,51.48733293066785],[7.412462826307589,51.486712060696014],[7.413224070318803,51.48632481086299],[7.414235121938689,51.48655842806802],[7.414484939835521,51.48717929869794],[7.413723687920669,51.48756655146481],[7.4127126260125165,51.48733293066785]]]}},{"type":"Feature","properties":{"predicted_rsrp_dbm":-92.6,"uncertainty_db":9.3,"distance_m":64,"h3":"8a1f12525c6ffff"},"geometry":{"type":"Polygon","coordinates":[[[7.414484939835521,51.48717929869794],[7.414235121938689,51.48655842806802],[7.414996361863127,51.486171163598605],[7.416007427586926,51.486404766825],[7.416257263675362,51.48702563811254],[7.415496015848492,51.487412905516095],[7.414484939835521,51.48717929869794]]]}},{"type":"Feature","properties":{"predicted_rsrp_dbm":-83.1,"uncertainty_db":10.8,"distance_m":100,"h3":"8a1f12525c77fff"},"geometry":{"type":"Polygon","coordinates":[[[7.411451788793418,51.48647842951277],[7.41120200557787,51.48585755208866],[7.411963241684819,51.48547030518928],[7.412974268911696,51.48570393278043],[7.413224070318803,51.48632481086299],[7.412462826307589,51.486712060696014],[7.411451788793418,51.48647842951277]]]}},{"type":"Feature","properties":{"predicted_rsrp_dbm":-72.7,"uncertainty_db":11.7,"distance_m":120,"h3":"8a1f12525c87fff"},"geometry":{"type":"Polygon","coordinates":[[[7.406408848741957,51.4830602465294],[7.406159131476998,51.482439339302054],[7.406920335960685,51.48205210413477],[7.407931265616232,51.48228577326222],[7.408181001071471,51.4829066811496],[7.407419788681006,51.48329391924954],[7.406408848741957,51.4830602465294]]]}},{"type":"Feature","properties":{"predicted_rsrp_dbm":-72.7,"uncertainty_db":7.5,"distance_m":9,"h3":"8a1f12525c8ffff"},"geometry":{"type":"Polygon","coordinates":[[[7.408181001071471,51.4829066811496],[7.407931265616232,51.48228577326222],[7.40869246601911,51.481898523459684],[7.409703409782941,51.482132178611685],[7.4099531634281925,51.48275308715875],[7.4091919551197565,51.48314033989417],[7.408181001071471,51.4829066811496]]]}},{"type":"Feature","properties":{"predicted_rsrp_dbm":-73.1,"uncertainty_db":9.5,"distance_m":70,"h3":"8a1f12525c9ffff"},"geometry":{"type":"Polygon","coordinates":[[[7.406920335960685,51.48205210413477],[7.406670616991664,51.481431188797636],[7.407431809488362,51.48104394192777],[7.408442728860404,51.481277607462445],[7.40869246601911,51.481898523459684],[7.407931265616232,51.48228577326222],[7.406920335960685,51.48205210413477]]]}},{"type":"Feature","properties":{"predicted_rsrp_dbm":-73.2,"uncertainty_db":8.2,"distance_m":35,"h3":"8a1f12525caffff"},"geometry":{"type":"Polygon","coordinates":[[[7.407669522432606,51.48391481902693],[7.407419788681006,51.48329391924954],[7.408181001071471,51.4829066811496],[7.4091919551197565,51.48314033989417],[7.409441707061941,51.483761240331205],[7.408680486765355,51.48414848136406],[7.407669522432606,51.48391481902693]]]}},{"type":"Feature","properties":{"predicted_rsrp_dbm":-80.8,"uncertainty_db":12.0,"distance_m":126,"h3":"8a1f12525cc7fff"},"geometry":{"type":"Polygon","coordinates":[[[7.411213901716384,51.48360763302354],[7.410964131583868,51.48298673192727],[7.411725335808804,51.48259946455622],[7.412736318070068,51.4828330953482],[7.41298610639264,51.48345399710335],[7.412224894263987,51.48384126740774],[7.411213901716384,51.48360763302354]]]}},{"type":"Feature","properties":{"predicted_rsrp_dbm":-74.7,"uncertainty_db":7.7,"distance_m":28,"h3":"8a1f12525cd7fff"},"geometry":{"type":"Polygon","coordinates":[[[7.4099531634281925,51.48275308715875],[7.409703409782941,51.482132178611685],[7.410464606103486,51.48174491417384],[7.411475563973804,51.48197855534993],[7.411725335808804,51.48259946455622],[7.410964131583868,51.48298673192727],[7.4099531634281925,51.48275308715875]]]}},{"type":"Feature","properties":{"predicted_rsrp_dbm":-88.5,"uncertainty_db":13.0,"distance_m":149,"h3":"8a1f12525cdffff"},"geometry":{"type":"Polygon","coordinates":[[[7.411725335808804,51.48259946455622],[7.411475563973804,51.48197855534993],[7.412236756210527,51.48159127627661],[7.41324772818553,51.481824903476316],[7.413497518209989,51.4824458133415],[7.412736318070068,51.4828330953482],[7.411725335808804,51.48259946455622]]]}},{"type":"Feature","properties":{"predicted_rsrp_dbm":-80.5,"uncertainty_db":7.0,"distance_m":11,"h3":"8a1f12525ce7fff"},"geometry":{"type":"Polygon","coordinates":[[[7.410702453932803,51.48461578167822],[7.410452685503,51.483994888692145],[7.411213901716384,51.48360763302354],[7.412224894263987,51.48384126740774],[7.412474680884405,51.484462161052704],[7.411713456766711,51.484849419654665],[7.410702453932803,51.48461578167822]]]}},{"type":"Feature","properties":{"predicted_rsrp_dbm":-98.6,"uncertainty_db":8.5,"distance_m":47,"h3":"8a1f12525ceffff"},"geometry":{"type":"Polygon","coordinates":[[[7.412474680884405,51.484462161052704],[7.412224894263987,51.48384126740774],[7.41298610639264,51.48345399710335],[7.413997113044986,51.48368761751038],[7.414246917855792,51.484308511813786],[7.413485697823995,51.48469578505179],[7.412474680884405,51.484462161052704]]]}},{"type":"Feature","properties":{"predicted_rsrp_dbm":-72.1,"uncertainty_db":9.5,"distance_m":47,"h3":"8a1f12525cf7fff"},"geometry":{"type":"Polygon","coordinates":[[[7.409441707061941,51.483761240331205],[7.4091919551197565,51.48314033989417],[7.4099531634281925,51.48275308715875],[7.410964131583868,51.48298673192727],[7.411213901716384,51.48360763302354],[7.410452685503,51.483994888692145],[7.409441707061941,51.483761240331205]]]}},{"type":"Feature","properties":{"predicted_rsrp_dbm":-73.5,"uncertainty_db":11.0,"distance_m":88,"h3":"8a1f12c8b287fff"},"geometry":{"type":"Polygon","coordinates":[[[7.4116540497523555,51.49609810002227],[7.411404228982743,51.49547730173774],[7.412165572744402,51.49509012795859],[7.4131767451821196,51.49532374952966],[7.413426584148434,51.49594454847129],[7.412665232480431,51.496331725184845],[7.4116540497523555,51.49609810002227]]]}},{"type":"Feature","properties":{"predicted_rsrp_dbm":-87.7,"uncertainty_db":8.6,"distance_m":49,"h3":"8a1f12c8b28ffff"},"geometry":{"type":"Polygon","coordinates":[[[7.413426584148434,51.49594454847129],[7.4131767451821196,51.49532374952966],[7.4139380848568415,51.49493656111262],[7.4149492714031515,51.49517016870267],[7.415199128565881,51.49579096830103],[7.41443778098598,51.49617815965267],[7.413426584148434,51.49594454847129]]]}},{"type":"Feature","properties":{"predicted_rsrp_dbm":-68.3,"uncertainty_db":10.6,"distance_m":95,"h3":"8a1f12c8b297fff"},"geometry":{"type":"Polygon","coordinates":[[[7.410393070655445,51.49524366618614],[7.41014326637923,51.49462286044707],[7.410904602233883,51.49423568960206],[7.4119157502718345,51.49446932156203],[7.412165572744402,51.49509012795859],[7.411404228982743,51.49547730173774],[7.410393070655445,51.49524366618614]]]}},{"type":"Feature","properties":{"predicted_rsrp_dbm":-78.0,"uncertainty_db":8.7,"distance_m":50,"h3":"8a1f12c8b29ffff"},"geometry":{"type":"Polygon","coordinates":[[[7.412165572744402,51.49509012795859],[7.4119157502718345,51.49446932156203],[7.41267708204076,51.49408213607933],[7.4136882441881715,51.49431575405893],[7.4139380848568415,51.49493656111262],[7.4131767451821196,51.49532374952966],[7.412165572744402,51.49509012795859]]]}},{"type":"Feature","properties":{"predicted_rsrp_dbm":-80.1,"uncertainty_db":9.9,"distance_m":79,"h3":"8a1f12c8b2affff"},"geometry":{"type":"Polygon","coordinates":[[[7.412915069744129,51.49695251601425],[7.412665232480431,51.496331725184845],[7.413426584148434,51.49594454847129],[7.41443778098598,51.49617815965267],[7.414687636446729,51.49679895113881],[7.413926276872973,51.497186130786936],[7.412915069744129,51.49695251601425]]]}},{"type":"Feature","properties":{"predicted_rsrp_dbm":-99.8,"uncertainty_db":12.5,"distance_m":139,"h3":"8a1f12c8b2cffff"},"geometry":{"type":"Polygon","coordinates":[[[7.418232799906544,51.49649173552677],[7.417982908052611,51.49587094272841],[7.418744247451752,51.49548372210021],[7.419755486607051,51.49571729133511],[7.420005396657194,51.496338084789],[7.419244049355911,51.49672530835252],[7.418232799906544,51.49649173552677]]]}},{"type":"Feature","properties":{"predicted_rsrp_dbm":-95.8,"uncertainty_db":10.0,"distance_m":80,"h3":"8a1f12c8b2d7fff"},"geometry":{"type":"Polygon","coordinates":[[[7.415199128565881,51.49579096830103],[7.4149492714031515,51.49517016870267],[7.415710606989455,51.49478296564764],[7.416721807642539,51.49501655925618],[7.416971683001413,51.49563735951085],[7.416210339511144,51.49602456550075],[7.415199128565881,51.49579096830103]]]}},{"type":"Feature","properties":{"predicted_rsrp_dbm":-99.5,"uncertainty_db":8.6,"distance_m":48,"h3":"8a1f12c8b2dffff"},"geometry":{"type":"Polygon","coordinates":[[[7.416971683001413,51.49563735951085],[7.416721807642539,51.49501655925618],[7.417483139138887,51.49462934156306],[7.418494353896977,51.4948629211896],[7.418744247451752,51.49548372210021],[7.417982908052611,51.49587094272841],[7.416971683001413,51.49563735951085]]]}},{"type":"Feature","properties":{"predicted_rsrp_dbm":-92.5,"uncertainty_db":12.5,"distance_m":139,"h3":"8a1f12c8b2f7fff"},"geometry":{"type":"Polygon","coordinates":[[[7.414687636446729,51.49679895113881],[7.41443778098598,51.49617815965267],[7.415199128565881,51.49579096830103],[7.416210339511144,51.49602456550075],[7.416460213168625,51.49664535764317],[7.415698857684198,51.49703255192968],[7.414687636446729,51.49679895113881]]]}},{"type":"Feature","properties":{"predicted_rsrp_dbm":-74.2,"uncertainty_db":10.5,"distance_m":92,"h3":"8a1f12c8b607fff"},"geometry":{"type":"Polygon","coordinates":[[[7.404837983594391,51.492833727274984],[7.404588246989943,51.49221289983492],[7.405349563200499,51.491825752427665],[7.406360623925682,51.4920594295274],[7.406610378725828,51.49268025762661],[7.405849054605207,51.49306740796702],[7.404837983594391,51.492833727274984]]]}},{"type":"Feature","properties":{"predicted_rsrp_dbm":-74.5,"uncertainty_db":8.9,"distance_m":55,"h3":"8a1f12c8b60ffff"},"geometry":{"type":"Polygon","coordinates":[[[7.406610378725828,51.49268025762661],[7.406360623925682,51.4920594295274],[7.407121936055623,51.491672267483295],[7.408133010894682,51.491905930605085],[7.408382783890241,51.49252675936303],[7.407621463851454,51.49291392434054],[7.406610378725828,51.49268025762661]]]}},{"type":"Feature","properties":{"predicted_rsrp_dbm":-74.7,"uncertainty_db":11.4,"distance_m":112,"h3":"8a1f12c8b627fff"},"geometry":{"type":"Polygon","coordinates":[[[7.404326390292601,51.493841682306986],[7.404076655393432,51.49322086297843],[7.404837983594391,51.492833727274984],[7.405849054605207,51.49306740796702],[7.406098807700667,51.49368822795471],[7.4053374715891,51.49407536659129],[7.404326390292601,51.493841682306986]]]}},{"type":"Feature","properties":{"predicted_rsrp_dbm":-74.7,"uncertainty_db":6.7,"distance_m":4,"h3":"8a1f12c8b62ffff"},"geometry":{"type":"Polygon","coordinates":[[[7.406098807700667,51.49368822795471],[7.405849054605207,51.49306740796702],[7.406610378725828,51.49268025762661],[7.407621463851454,51.49291392434054],[7.407871235142924,51.49353474498694],[7.407109903112879,51.49392189826076],[7.406098807700667,51.49368822795471]]]}},{"type":"Feature","properties":{"predicted_rsrp_dbm":-72.7,"uncertainty_db":9.3,"distance_m":65,"h3":"8a1f12c8b647fff"},"geometry":{"type":"Polygon","coordinates":[[[7.409643672616093,51.49338123340308],[7.409393883128873,51.49276041209832],[7.4101551990843415,51.492373232483644],[7.411166312434169,51.49260687123989],[7.411416120116844,51.493227693202556],[7.4106547962543265,51.49361487575111],[7.409643672616093,51.49338123340308]]]}},{"type":"Feature","properties":{"predicted_rsrp_dbm":-72.9,"uncertainty_db":10.9,"distance_m":102,"h3":"8a1f12c8b64ffff"},"geometry":{"type":"Polygon","coordinates":[[[7.411416120116844,51.493227693202556],[7.411166312434169,51.49260687123989],[7.411927624304802,51.492219676987915],[7.412938751764049,51.492453301764584],[7.413188577641899,51.4930741243848],[7.41242725786542,51.493461321570855],[7.411416120116844,51.493227693202556]]]}},{"type":"Feature","properties":{"predicted_rsrp_dbm":-74.5,"uncertainty_db":11.5,"distance_m":116,"h3":"8a1f12c8b657fff"},"geometry":{"type":"Polygon","coordinates":[[[7.408382783890241,51.49252675936303],[7.408133010894682,51.491905930605085],[7.40889431894247,51.49151875392404],[7.409905407893646,51.49175240306736],[7.4101551990843415,51.492373232483644],[7.409393883128873,51.49276041209832],[7.408382783890241,51.49252675936303]]]}},{"type":"Feature","properties":{"predicted_rsrp_dbm":-74.4,"uncertainty_db":8.3,"distance_m":42,"h3":"8a1f12c8b65ffff"},"geometry":{"type":"Polygon","coordinates":[[[7.4101551990843415,51.492373232483644],[7.409905407893646,51.49175240306736],[7.410666711857759,51.49136521174927],[7.411677814919194,51.49159884691368],[7.411927624304802,51.492219676987915],[7.411166312434169,51.49260687123989],[7.4101551990843415,51.492373232483644]]]}},{"type":"Feature","properties":{"predicted_rsrp_dbm":-68.4,"uncertainty_db":7.2,"distance_m":16,"h3":"8a1f12c8b667fff"},"geometry":{"type":"Polygon","coordinates":[[[7.409132132452539,51.49438921450724],[7.408882344669056,51.49376840131421],[7.409643672616093,51.49338123340308],[7.4106547962543265,51.49361487575111],[7.410904602233883,51.49423568960206],[7.41014326637923,51.49462286044707],[7.409132132452539,51.49438921450724]]]}},{"type":"Feature","properties":{"predicted_rsrp_dbm":-67.1,"uncertainty_db":6.7,"distance_m":6,"h3":"8a1f12c8b66ffff"},"geometry":{"type":"Polygon","coordinates":[[[7.410904602233883,51.49423568960206],[7.4106547962543265,51.49361487575111],[7.411416120116844,51.493227693202556],[7.41242725786542,51.493461321570855],[7.41267708204076,51.49408213607933],[7.4119157502718345,51.49446932156203],[7.410904602233883,51.49423568960206]]]}},{"type":"Feature","properties":{"predicted_rsrp_dbm":-74.9,"uncertainty_db":7.4,"distance_m":20,"h3":"8a1f12c8b677fff"},"geometry":{"type":"Polygon","coordinates":[[[7.407871235142924,51.49353474498694],[7.407621463851454,51.49291392434054],[7.408382783890241,51.49252675936303],[7.409393883128873,51.49276041209832],[7.409643672616093,51.49338123340308],[7.408882344669056,51.49376840131421],[7.407871235142924,51.49353474498694]]]}},{"type":"Feature","properties":{"predicted_rsrp_dbm":-72.4,"uncertainty_db":11.3,"distance_m":111,"h3":"8a1f12c8b6effff"},"geometry":{"type":"Polygon","coordinates":[[[7.40889431894247,51.49151875392404],[7.408644544243043,51.4908979170547],[7.409405840300091,51.49051072867025],[7.410416918963778,51.49074437422156],[7.410666711857759,51.49136521174927],[7.409905407893646,51.49175240306736],[7.40889431894247,51.49151875392404]]]}},{"type":"Feature","properties":{"predicted_rsrp_dbm":-69.5,"uncertainty_db":11.9,"distance_m":125,"h3":"8a1f12c8b747fff"},"geometry":{"type":"Polygon","coordinates":[[[7.406848096561068,51.495550656788325],[7.406598328678463,51.49492985236545],[7.407359672700021,51.49454271079546],[7.40837079251368,51.4947763707147],[7.4086205785932195,51.495397175795866],[7.40785922666228,51.495784320299514],[7.406848096561068,51.495550656788325]]]}},{"type":"Feature","properties":{"predicted_rsrp_dbm":-68.6,"uncertainty_db":12.0,"distance_m":126,"h3":"8a1f12c8b74ffff"},"geometry":{"type":"Polygon","coordinates":[[[7.4086205785932195,51.495397175795866],[7.40837079251368,51.4947763707147],[7.409132132452539,51.49438921450724],[7.41014326637923,51.49462286044707],[7.410393070655445,51.49524366618614],[7.409631722808383,51.49563082532752],[7.4086205785932195,51.495397175795866]]]}},{"type":"Feature","properties":{"predicted_rsrp_dbm":-69.7,"uncertainty_db":9.3,"distance_m":66,"h3":"8a1f12c8b757fff"},"geometry":{"type":"Polygon","coordinates":[[[7.40558722297964,51.49469617846727],[7.4053374715891,51.49407536659129],[7.406098807700667,51.49368822795471],[7.407109903112879,51.49392189826076],[7.407359672700021,51.49454271079546],[7.406598328678463,51.49492985236545],[7.40558722297964,51.49469617846727]]]}},{"type":"Feature","properties":{"predicted_rsrp_dbm":-69.1,"uncertainty_db":8.5,"distance_m":46,"h3":"8a1f12c8b75ffff"},"geometry":{"type":"Polygon","coordinates":[[[7.407359672700021,51.49454271079546],[7.407109903112879,51.49392189826076],[7.407871235142924,51.49353474498694],[7.408882344669056,51.49376840131421],[7.409132132452539,51.49438921450724],[7.40837079251368,51.4947763707147],[7.407359672700021,51.49454271079546]]]}},{"type":"Feature","properties":{"predicted_rsrp_dbm":-99.4,"uncertainty_db":12.2,"distance_m":132,"h3":"8a1f12cd0087fff"},"geometry":{"type":"Polygon","coordinates":[[[7.466546864791159,51.50482378406391],[7.466296430874422,51.5042030766057],[7.467057798773094,51.50381555423812],[7.468069608461066,51.5040487363861],[7.468320060573109,51.50466944448745],[7.467558684801967,51.505056969797735],[7.466546864791159,51.50482378406391]]]}},{"type":"Feature","properties":{"predicted_rsrp_dbm":-99.4,"uncertainty_db":10.7,"distance_m":97,"h3":"8a1f12cd00a7fff"},"geometry":{"type":"Polygon","coordinates":[[[7.4660359171162,51.505831994074214],[7.465785484884848,51.50521129473082],[7.466546864791159,51.50482378406391],[7.467558684801967,51.505056969797735],[7.467809135229276,51.50567766978429],[7.467047747449906,51.506065183393915],[7.4660359171162,51.505831994074214]]]}},{"type":"Feature","properties":{"predicted_rsrp_dbm":-99.4,"uncertainty_db":8.4,"distance_m":43,"h3":"8a1f12cd00b7fff"},"geometry":{"type":"Polygon","coordinates":[[[7.464773678935329,51.50497809499705],[7.464523263214212,51.504357388182385],[7.4652846352468565,51.5039698804579],[7.466296430874422,51.5042030766057],[7.466546864791159,51.50482378406391],[7.465785484884848,51.50521129473082],[7.464773678935329,51.50497809499705]]]}},{"type":"Feature","properties":{"predicted_rsrp_dbm":-99.4,"uncertainty_db":10.0,"distance_m":80,"h3":"8a1f12cd019ffff"},"geometry":{"type":"Polygon","coordinates":[[[7.464262708930549,51.50598628972057],[7.464012294895363,51.5053655910207],[7.464773678935329,51.50497809499705],[7.465785484884848,51.50521129473082],[7.4660359171162,51.505831994074214],[7.465274525201972,51.50621949304035],[7.464262708930549,51.50598628972057]]]}},{"type":"Feature","properties":{"predicted_rsrp_dbm":-99.4,"uncertainty_db":12.4,"distance_m":136,"h3":"8a1f12cd0447fff"},"geometry":{"type":"Polygon","coordinates":[[[7.464533397849709,51.50210772008498],[7.464282995266072,51.50148698957083],[7.465044335411624,51.50109946138736],[7.466056086014106,51.50133266077591],[7.466306506791812,51.501953391934016],[7.465545158773109,51.50234092305968],[7.464533397849709,51.50210772008498]]]}},{"type":"Feature","properties":{"predicted_rsrp_dbm":-99.4,"uncertainty_db":8.1,"distance_m":36,"h3":"8a1f12cd044ffff"},"geometry":{"type":"Polygon","coordinates":[[[7.466306506791812,51.501953391934016],[7.466056086014106,51.50133266077591],[7.466817422026204,51.50094511794981],[7.467829186688147,51.5011783033395],[7.46807962565972,51.50179903514123],[7.467318281775607,51.502186580909736],[7.466306506791812,51.501953391934016]]]}},{"type":"Feature","properties":{"predicted_rsrp_dbm":-99.4,"uncertainty_db":10.5,"distance_m":92,"h3":"8a1f12cd046ffff"},"geometry":{"type":"Polygon","coordinates":[[[7.465795577865527,51.50296164610348],[7.465545158773109,51.50234092305968],[7.466306506791812,51.501953391934016],[7.467318281775607,51.502186580909736],[7.467568719062447,51.50280730459711],[7.466807363171199,51.50319483866524],[7.465795577865527,51.50296164610348]]]}},{"type":"Feature","properties":{"predicted_rsrp_dbm":-99.4,"uncertainty_db":12.2,"distance_m":131,"h3":"8a1f12cd056ffff"},"geometry":{"type":"Polygon","coordinates":[[[7.4630005030090265,51.50513237728744],[7.462750105483776,51.50451167111674],[7.463511481648882,51.504124178035276],[7.464523263214212,51.504357388182385],[7.464773678935329,51.50497809499705],[7.464012294895363,51.5053655910207],[7.4630005030090265,51.50513237728744]]]}},{"type":"Feature","properties":{"predicted_rsrp_dbm":-99.4,"uncertainty_db":11.8,"distance_m":122,"h3":"8a1f12cd0717fff"},"geometry":{"type":"Polygon","coordinates":[[[7.46807962565972,51.50179903514123],[7.467829186688147,51.5011783033395],[7.468590518565325,51.50079074587073],[7.469602297284945,51.50102391726109],[7.469852754450028,51.50164464970603],[7.469091414702092,51.502032210117484],[7.46807962565972,51.50179903514123]]]}},{"type":"Feature","properties":{"predicted_rsrp_dbm":-99.4,"uncertainty_db":10.7,"distance_m":97,"h3":"8a1f12cd0737fff"},"geometry":{"type":"Polygon","coordinates":[[[7.467568719062447,51.50280730459711],[7.467318281775607,51.502186580909736],[7.46807962565972,51.50179903514123],[7.469091414702092,51.502032210117484],[7.469341870183035,51.50265293444803],[7.468580518427587,51.50304048315923],[7.467568719062447,51.50280730459711]]]}},{"type":"Feature","properties":{"predicted_rsrp_dbm":-99.4,"uncertainty_db":12.9,"distance_m":148,"h3":"8a1f12cd07a7fff"},"geometry":{"type":"Polygon","coordinates":[[[7.466817422026204,51.50094511794981],[7.466566999563398,51.50032437867749],[7.467328323569175,51.49993682415119],[7.468340077909314,51.5001700059548],[7.468590518565325,51.50079074587073],[7.467829186688147,51.5011783033395],[7.466817422026204,51.50094511794981]]]}},{"type":"Feature","properties":{"predicted_rsrp_dbm":-99.4,"uncertainty_db":9.5,"distance_m":69,"h3":"8a1f12cd6647fff"},"geometry":{"type":"Polygon","coordinates":[[[7.443289379249947,51.49720857842008],[7.443039219559145,51.49658780016841],[7.443800533407867,51.496200395057656],[7.444812014833394,51.49643376525975],[7.445062192718006,51.49705454416103],[7.444300870983391,51.49744195221066],[7.443289379249947,51.49720857842008]]]}},{"type":"Feature","properties":{"predicted_rsrp_dbm":-99.4,"uncertainty_db":10.7,"distance_m":98,"h3":"8a1f12cd664ffff"},"geometry":{"type":"Polygon","coordinates":[[[7.445062192718006,51.49705454416103],[7.444812014833394,51.49643376525975],[7.445573324567675,51.49604634550874],[7.446584820071408,51.49627970171989],[7.446835016149563,51.49690048127037],[7.44607369853056,51.49728790396052],[7.445062192718006,51.49705454416103]]]}},{"type":"Feature","properties":{"predicted_rsrp_dbm":-99.4,"uncertainty_db":11.1,"distance_m":107,"h3":"8a1f12cd6667fff"},"geometry":{"type":"Polygon","coordinates":[[[7.442778211399269,51.4982167419679],[7.442528053401185,51.49759597182929],[7.443289379249947,51.49720857842008],[7.444300870983391,51.49744195221066],[7.444551047175857,51.498062722998846],[7.443789713440611,51.498450119346934],[7.442778211399269,51.4982167419679]]]}},{"type":"Feature","properties":{"predicted_rsrp_dbm":-99.4,"uncertainty_db":9.1,"distance_m":61,"h3":"8a1f12cd666ffff"},"geometry":{"type":"Polygon","coordinates":[[[7.444551047175857,51.498062722998846],[7.444300870983391,51.49744195221066],[7.445062192718006,51.49705454416103],[7.44607369853056,51.49728790396052],[7.446323892917183,51.49790867539787],[7.445562563297241,51.49829608638665],[7.444551047175857,51.498062722998846]]]}}]}