{"type":"FeatureCollection","features":[{"type":"Feature","geometry":{"type":"Point","coordinates":[7.4119403,51.4919045]},"properties":{"knowledge_grade":"estimated_reception_center","mno_code":"A","cell_index":"12806666.0","physical_cellid":"121.0","earfcn":"1801.0","sample_count":52,"strongest_rsrp_dbm":-92.0,"method":"signal-strength-weighted center of sampled receiver positions","validated_tower_distance_m":null}},{"type":"Feature","geometry":{"type":"Point","coordinates":[7.4123719,51.4919222]},"properties":{"knowledge_grade":"estimated_reception_center","mno_code":"A","cell_index":"12806677.0","physical_cellid":"274.0","earfcn":"100.0","sample_count":21,"strongest_rsrp_dbm":-91.0,"method":"signal-strength-weighted center of sampled receiver positions","validated_tower_distance_m":null}},{"type":"Feature","geometry":{"type":"Point","coordinates":[7.4126012,51.4855669]},"properties":{"knowledge_grade":"estimated_reception_center","mno_code":"C","cell_index":"26385408.0","physical_cellid":"8.0","earfcn":"1300.0","sample_count":1161,"strongest_rsrp_dbm":-79.0,"method":"signal-strength-weighted center of sampled receiver positions","validated_tower_distance_m":null}},{"type":"Feature","geometry":{"type":"Point","coordinates":[7.4141781,51.4860379]},"properties":{"knowledge_grade":"estimated_reception_center","mno_code":"C","cell_index":"26385411.0","physical_cellid":"282.0","earfcn":"3050.0","sample_count":21,"strongest_rsrp_dbm":-99.0,"method":"signal-strength-weighted center of sampled receiver positions","validated_tower_distance_m":null}},{"type":"Feature","geometry":{"type":"Point","coordinates":[7.4161352,51.4942167]},"properties":{"knowledge_grade":"estimated_reception_center","mno_code":"C","cell_index":"27389697.0","physical_cellid":"218.0","earfcn":"1300.0","sample_count":259,"strongest_rsrp_dbm":-64.0,"method":"signal-strength-weighted center of sampled receiver positions","validated_tower_distance_m":null}},{"type":"Feature","geometry":{"type":"Point","coordinates":[7.4140331,51.4875461]},"properties":{"knowledge_grade":"estimated_reception_center","mno_code":"C","cell_index":"28365056.0","physical_cellid":"371.0","earfcn":"1300.0","sample_count":1722,"strongest_rsrp_dbm":-55.0,"method":"signal-strength-weighted center of sampled receiver positions","validated_tower_distance_m":null}},{"type":"Feature","geometry":{"type":"Point","coordinates":[7.4138219,51.487175]},"properties":{"knowledge_grade":"estimated_reception_center","mno_code":"C","cell_index":"28365057.0","physical_cellid":"370.0","earfcn":"1300.0","sample_count":1113,"strongest_rsrp_dbm":-55.0,"method":"signal-strength-weighted center of sampled receiver positions","validated_tower_distance_m":null}},{"type":"Feature","geometry":{"type":"Point","coordinates":[7.4091485,51.4819109]},"properties":{"knowledge_grade":"estimated_reception_center","mno_code":"C","cell_index":"28365058.0","physical_cellid":"369.0","earfcn":"1300.0","sample_count":1019,"strongest_rsrp_dbm":-61.0,"method":"signal-strength-weighted center of sampled receiver positions","validated_tower_distance_m":null}},{"type":"Feature","geometry":{"type":"Point","coordinates":[7.41445,51.4866193]},"properties":{"knowledge_grade":"estimated_reception_center","mno_code":"C","cell_index":"28365062.0","physical_cellid":"171.0","earfcn":"3749.0","sample_count":111,"strongest_rsrp_dbm":-73.0,"method":"signal-strength-weighted center of sampled receiver positions","validated_tower_distance_m":null}},{"type":"Feature","geometry":{"type":"Point","coordinates":[7.4169966,51.4912697]},"properties":{"knowledge_grade":"estimated_reception_center","mno_code":"C","cell_index":"28365069.0","physical_cellid":"341.0","earfcn":"500.0","sample_count":41,"strongest_rsrp_dbm":-81.0,"method":"signal-strength-weighted center of sampled receiver positions","validated_tower_distance_m":null}},{"type":"Feature","geometry":{"type":"Point","coordinates":[7.4163788,51.4865383]},"properties":{"knowledge_grade":"estimated_reception_center","mno_code":"C","cell_index":"28367106.0","physical_cellid":"294.0","earfcn":"1300.0","sample_count":44,"strongest_rsrp_dbm":-95.0,"method":"signal-strength-weighted center of sampled receiver positions","validated_tower_distance_m":null}},{"type":"Feature","geometry":{"type":"Point","coordinates":[7.4164985,51.4865862]},"properties":{"knowledge_grade":"estimated_reception_center","mno_code":"C","cell_index":"28367106.0","physical_cellid":"86.0","earfcn":"1300.0","sample_count":30,"strongest_rsrp_dbm":-93.0,"method":"signal-strength-weighted center of sampled receiver positions","validated_tower_distance_m":null}},{"type":"Feature","geometry":{"type":"Point","coordinates":[7.4173188,51.4879343]},"properties":{"knowledge_grade":"estimated_reception_center","mno_code":"C","cell_index":"28368386.0","physical_cellid":"417.0","earfcn":"1300.0","sample_count":26,"strongest_rsrp_dbm":-88.0,"method":"signal-strength-weighted center of sampled receiver positions","validated_tower_distance_m":null}},{"type":"Feature","geometry":{"type":"Point","coordinates":[7.4171677,51.4890126]},"properties":{"knowledge_grade":"estimated_reception_center","mno_code":"C","cell_index":"28368389.0","physical_cellid":"150.0","earfcn":"3050.0","sample_count":23,"strongest_rsrp_dbm":-90.0,"method":"signal-strength-weighted center of sampled receiver positions","validated_tower_distance_m":null}},{"type":"Feature","geometry":{"type":"Point","coordinates":[7.4114163,51.4939289]},"properties":{"knowledge_grade":"estimated_reception_center","mno_code":"C","cell_index":"29391104.0","physical_cellid":"300.0","earfcn":"1300.0","sample_count":118,"strongest_rsrp_dbm":-59.0,"method":"signal-strength-weighted center of sampled receiver positions","validated_tower_distance_m":null}},{"type":"Feature","geometry":{"type":"Point","coordinates":[7.4112159,51.493901]},"properties":{"knowledge_grade":"estimated_reception_center","mno_code":"C","cell_index":"29391104.0","physical_cellid":"485.0","earfcn":"1300.0","sample_count":64,"strongest_rsrp_dbm":-59.0,"method":"signal-strength-weighted center of sampled receiver positions","validated_tower_distance_m":null}},{"type":"Feature","geometry":{"type":"Point","coordinates":[7.4165248,51.491385]},"properties":{"knowledge_grade":"estimated_reception_center","mno_code":"C","cell_index":"29391105.0","physical_cellid":"211.0","earfcn":"1300.0","sample_count":143,"strongest_rsrp_dbm":-63.0,"method":"signal-strength-weighted center of sampled receiver positions","validated_tower_distance_m":null}},{"type":"Feature","geometry":{"type":"Point","coordinates":[7.4163276,51.4913757]},"properties":{"knowledge_grade":"estimated_reception_center","mno_code":"C","cell_index":"29391105.0","physical_cellid":"301.0","earfcn":"1300.0","sample_count":1326,"strongest_rsrp_dbm":-63.0,"method":"signal-strength-weighted center of sampled receiver positions","validated_tower_distance_m":null}},{"type":"Feature","geometry":{"type":"Point","coordinates":[7.4158337,51.4915064]},"properties":{"knowledge_grade":"estimated_reception_center","mno_code":"C","cell_index":"29391105.0","physical_cellid":"484.0","earfcn":"1300.0","sample_count":875,"strongest_rsrp_dbm":-60.0,"method":"signal-strength-weighted center of sampled receiver positions","validated_tower_distance_m":null}},{"type":"Feature","geometry":{"type":"Point","coordinates":[7.4072987,51.493424]},"properties":{"knowledge_grade":"estimated_reception_center","mno_code":"C","cell_index":"29391106.0","physical_cellid":"212.0","earfcn":"1300.0","sample_count":145,"strongest_rsrp_dbm":-73.0,"method":"signal-strength-weighted center of sampled receiver positions","validated_tower_distance_m":null}},{"type":"Feature","geometry":{"type":"Point","coordinates":[7.4074996,51.4934532]},"properties":{"knowledge_grade":"estimated_reception_center","mno_code":"C","cell_index":"29391106.0","physical_cellid":"302.0","earfcn":"1300.0","sample_count":1001,"strongest_rsrp_dbm":-61.0,"method":"signal-strength-weighted center of sampled receiver positions","validated_tower_distance_m":null}},{"type":"Feature","geometry":{"type":"Point","coordinates":[7.4076986,51.4934864]},"properties":{"knowledge_grade":"estimated_reception_center","mno_code":"C","cell_index":"29391106.0","physical_cellid":"483.0","earfcn":"1300.0","sample_count":491,"strongest_rsrp_dbm":-58.0,"method":"signal-strength-weighted center of sampled receiver positions","validated_tower_distance_m":null}},{"type":"Feature","geometry":{"type":"Point","coordinates":[7.4167904,51.4894736]},"properties":{"knowledge_grade":"estimated_reception_center","mno_code":"C","cell_index":"29391117.0","physical_cellid":"220.0","earfcn":"6400.0","sample_count":117,"strongest_rsrp_dbm":-69.0,"method":"signal-strength-weighted center of sampled receiver positions","validated_tower_distance_m":null}},{"type":"Feature","geometry":{"type":"Point","coordinates":[7.4172493,51.4873704]},"properties":{"knowledge_grade":"estimated_reception_center","mno_code":"C","cell_index":"30422284.0","physical_cellid":"309.0","earfcn":"6400.0","sample_count":35,"strongest_rsrp_dbm":-78.0,"method":"signal-strength-weighted center of sampled receiver positions","validated_tower_distance_m":null}}]}