{"type":"FeatureCollection","features":[{"type":"Feature","geometry":{"type":"LineString","coordinates":[[7.40726821907557,51.49342050433708],[7.4069623,51.4932544]]},"properties":{"knowledge_grade":"route_bound_model_diagnostic","sector":0,"sample_count":43,"mean_model_rsrp_dbm":-74.9,"mean_observed_rsrp_dbm":-77.6,"anchor_grade":"estimated_reception_center","not_coverage":true}},{"type":"Feature","geometry":{"type":"LineString","coordinates":[[7.40726821907557,51.49342050433708],[7.4072081,51.4929406]]},"properties":{"knowledge_grade":"route_bound_model_diagnostic","sector":1,"sample_count":22,"mean_model_rsrp_dbm":-75.1,"mean_observed_rsrp_dbm":-77.5,"anchor_grade":"estimated_reception_center","not_coverage":true}},{"type":"Feature","geometry":{"type":"LineString","coordinates":[[7.40726821907557,51.49342050433708],[7.410885,51.49379199999999]]},"properties":{"knowledge_grade":"route_bound_model_diagnostic","sector":4,"sample_count":12,"mean_model_rsrp_dbm":-77.0,"mean_observed_rsrp_dbm":-83.6,"anchor_grade":"estimated_reception_center","not_coverage":true}},{"type":"Feature","geometry":{"type":"LineString","coordinates":[[7.40726821907557,51.49342050433708],[7.4069164,51.4936552]]},"properties":{"knowledge_grade":"route_bound_model_diagnostic","sector":6,"sample_count":10,"mean_model_rsrp_dbm":-77.8,"mean_observed_rsrp_dbm":-76.9,"anchor_grade":"estimated_reception_center","not_coverage":true}},{"type":"Feature","geometry":{"type":"LineString","coordinates":[[7.40726821907557,51.49342050433708],[7.40689,51.4935968]]},"properties":{"knowledge_grade":"route_bound_model_diagnostic","sector":7,"sample_count":33,"mean_model_rsrp_dbm":-76.4,"mean_observed_rsrp_dbm":-77.5,"anchor_grade":"estimated_reception_center","not_coverage":true}},{"type":"Feature","geometry":{"type":"LineString","coordinates":[[7.416525598134382,51.491401290559345],[7.4173908,51.487552199999996]]},"properties":{"knowledge_grade":"route_bound_model_diagnostic","sector":2,"sample_count":46,"mean_model_rsrp_dbm":-84.6,"mean_observed_rsrp_dbm":-86.4,"anchor_grade":"estimated_reception_center","not_coverage":true}},{"type":"Feature","geometry":{"type":"LineString","coordinates":[[7.416525598134382,51.491401290559345],[7.4169651,51.4943972]]},"properties":{"knowledge_grade":"route_bound_model_diagnostic","sector":5,"sample_count":26,"mean_model_rsrp_dbm":-86.3,"mean_observed_rsrp_dbm":-87.4,"anchor_grade":"estimated_reception_center","not_coverage":true}},{"type":"Feature","geometry":{"type":"LineString","coordinates":[[7.416525598134382,51.491401290559345],[7.4139548,51.4942226]]},"properties":{"knowledge_grade":"route_bound_model_diagnostic","sector":6,"sample_count":49,"mean_model_rsrp_dbm":-86.0,"mean_observed_rsrp_dbm":-87.6,"anchor_grade":"estimated_reception_center","not_coverage":true}},{"type":"Feature","geometry":{"type":"LineString","coordinates":[[7.416102943873134,51.49421741247037],[7.4197784,51.492867]]},"properties":{"knowledge_grade":"route_bound_model_diagnostic","sector":3,"sample_count":81,"mean_model_rsrp_dbm":-92.9,"mean_observed_rsrp_dbm":-95.0,"anchor_grade":"estimated_reception_center","not_coverage":true}},{"type":"Feature","geometry":{"type":"LineString","coordinates":[[7.416102943873134,51.49421741247037],[7.4193645,51.4942858]]},"properties":{"knowledge_grade":"route_bound_model_diagnostic","sector":4,"sample_count":104,"mean_model_rsrp_dbm":-96.4,"mean_observed_rsrp_dbm":-100.0,"anchor_grade":"estimated_reception_center","not_coverage":true}},{"type":"Feature","geometry":{"type":"LineString","coordinates":[[7.416102943873134,51.49421741247037],[7.4167683,51.4947354]]},"properties":{"knowledge_grade":"route_bound_model_diagnostic","sector":5,"sample_count":14,"mean_model_rsrp_dbm":-93.2,"mean_observed_rsrp_dbm":-106.4,"anchor_grade":"estimated_reception_center","not_coverage":true}},{"type":"Feature","geometry":{"type":"LineString","coordinates":[[7.416102943873134,51.49421741247037],[7.4160738,51.4946495]]},"properties":{"knowledge_grade":"route_bound_model_diagnostic","sector":6,"sample_count":11,"mean_model_rsrp_dbm":-91.4,"mean_observed_rsrp_dbm":-94.9,"anchor_grade":"estimated_reception_center","not_coverage":true}},{"type":"Feature","geometry":{"type":"LineString","coordinates":[[7.416102943873134,51.49421741247037],[7.4127843,51.4942587]]},"properties":{"knowledge_grade":"route_bound_model_diagnostic","sector":7,"sample_count":37,"mean_model_rsrp_dbm":-89.1,"mean_observed_rsrp_dbm":-88.5,"anchor_grade":"estimated_reception_center","not_coverage":true}},{"type":"Feature","geometry":{"type":"LineString","coordinates":[[7.412594941572437,51.48557251208955],[7.4110272,51.484270800000004]]},"properties":{"knowledge_grade":"route_bound_model_diagnostic","sector":1,"sample_count":49,"mean_model_rsrp_dbm":-98.0,"mean_observed_rsrp_dbm":-97.3,"anchor_grade":"estimated_reception_center","not_coverage":true}},{"type":"Feature","geometry":{"type":"LineString","coordinates":[[7.412594941572437,51.48557251208955],[7.4135799,51.4845932]]},"properties":{"knowledge_grade":"route_bound_model_diagnostic","sector":2,"sample_count":923,"mean_model_rsrp_dbm":-101.9,"mean_observed_rsrp_dbm":-102.4,"anchor_grade":"estimated_reception_center","not_coverage":true}},{"type":"Feature","geometry":{"type":"LineString","coordinates":[[7.412594941572437,51.48557251208955],[7.4150622,51.4853166]]},"properties":{"knowledge_grade":"route_bound_model_diagnostic","sector":3,"sample_count":169,"mean_model_rsrp_dbm":-100.4,"mean_observed_rsrp_dbm":-100.9,"anchor_grade":"estimated_reception_center","not_coverage":true}},{"type":"Feature","geometry":{"type":"LineString","coordinates":[[7.414009156203402,51.48753157234801],[7.4090124,51.4823693]]},"properties":{"knowledge_grade":"route_bound_model_diagnostic","sector":1,"sample_count":389,"mean_model_rsrp_dbm":-87.1,"mean_observed_rsrp_dbm":-87.5,"anchor_grade":"estimated_reception_center","not_coverage":true}},{"type":"Feature","geometry":{"type":"LineString","coordinates":[[7.414009156203402,51.48753157234801],[7.4158566,51.4849498]]},"properties":{"knowledge_grade":"route_bound_model_diagnostic","sector":2,"sample_count":189,"mean_model_rsrp_dbm":-90.3,"mean_observed_rsrp_dbm":-88.7,"anchor_grade":"estimated_reception_center","not_coverage":true}},{"type":"Feature","geometry":{"type":"LineString","coordinates":[[7.414009156203402,51.48753157234801],[7.4175371,51.4864989]]},"properties":{"knowledge_grade":"route_bound_model_diagnostic","sector":3,"sample_count":129,"mean_model_rsrp_dbm":-93.2,"mean_observed_rsrp_dbm":-93.1,"anchor_grade":"estimated_reception_center","not_coverage":true}},{"type":"Feature","geometry":{"type":"LineString","coordinates":[[7.414009156203402,51.48753157234801],[7.4176663,51.4880872]]},"properties":{"knowledge_grade":"route_bound_model_diagnostic","sector":4,"sample_count":34,"mean_model_rsrp_dbm":-92.7,"mean_observed_rsrp_dbm":-91.2,"anchor_grade":"estimated_reception_center","not_coverage":true}},{"type":"Feature","geometry":{"type":"LineString","coordinates":[[7.414009156203402,51.48753157234801],[7.4195746,51.4932897]]},"properties":{"knowledge_grade":"route_bound_model_diagnostic","sector":5,"sample_count":947,"mean_model_rsrp_dbm":-87.3,"mean_observed_rsrp_dbm":-87.4,"anchor_grade":"estimated_reception_center","not_coverage":true}},{"type":"Feature","geometry":{"type":"LineString","coordinates":[[7.413803122053222,51.48717083161342],[7.4092811,51.48243480000001]]},"properties":{"knowledge_grade":"route_bound_model_diagnostic","sector":1,"sample_count":258,"mean_model_rsrp_dbm":-87.9,"mean_observed_rsrp_dbm":-89.3,"anchor_grade":"estimated_reception_center","not_coverage":true}},{"type":"Feature","geometry":{"type":"LineString","coordinates":[[7.413803122053222,51.48717083161342],[7.4140987,51.4846692]]},"properties":{"knowledge_grade":"route_bound_model_diagnostic","sector":2,"sample_count":134,"mean_model_rsrp_dbm":-88.9,"mean_observed_rsrp_dbm":-88.9,"anchor_grade":"estimated_reception_center","not_coverage":true}},{"type":"Feature","geometry":{"type":"LineString","coordinates":[[7.413803122053222,51.48717083161342],[7.4172158,51.4861904]]},"properties":{"knowledge_grade":"route_bound_model_diagnostic","sector":3,"sample_count":125,"mean_model_rsrp_dbm":-91.3,"mean_observed_rsrp_dbm":-91.5,"anchor_grade":"estimated_reception_center","not_coverage":true}},{"type":"Feature","geometry":{"type":"LineString","coordinates":[[7.413803122053222,51.48717083161342],[7.4170901,51.4890385]]},"properties":{"knowledge_grade":"route_bound_model_diagnostic","sector":4,"sample_count":42,"mean_model_rsrp_dbm":-92.1,"mean_observed_rsrp_dbm":-93.8,"anchor_grade":"estimated_reception_center","not_coverage":true}},{"type":"Feature","geometry":{"type":"LineString","coordinates":[[7.413803122053222,51.48717083161342],[7.4175954,51.4933221]]},"properties":{"knowledge_grade":"route_bound_model_diagnostic","sector":5,"sample_count":534,"mean_model_rsrp_dbm":-89.8,"mean_observed_rsrp_dbm":-89.8,"anchor_grade":"estimated_reception_center","not_coverage":true}},{"type":"Feature","geometry":{"type":"LineString","coordinates":[[7.409147656122315,51.48190973552967],[7.4085895,51.4813324]]},"properties":{"knowledge_grade":"route_bound_model_diagnostic","sector":1,"sample_count":300,"mean_model_rsrp_dbm":-75.7,"mean_observed_rsrp_dbm":-73.0,"anchor_grade":"estimated_reception_center","not_coverage":true}},{"type":"Feature","geometry":{"type":"LineString","coordinates":[[7.409147656122315,51.48190973552967],[7.4095373,51.4812656]]},"properties":{"knowledge_grade":"route_bound_model_diagnostic","sector":2,"sample_count":513,"mean_model_rsrp_dbm":-76.7,"mean_observed_rsrp_dbm":-76.3,"anchor_grade":"estimated_reception_center","not_coverage":true}},{"type":"Feature","geometry":{"type":"LineString","coordinates":[[7.409147656122315,51.48190973552967],[7.4093531,51.4818373]]},"properties":{"knowledge_grade":"route_bound_model_diagnostic","sector":3,"sample_count":10,"mean_model_rsrp_dbm":-82.8,"mean_observed_rsrp_dbm":-73.9,"anchor_grade":"estimated_reception_center","not_coverage":true}},{"type":"Feature","geometry":{"type":"LineString","coordinates":[[7.409147656122315,51.48190973552967],[7.4100414,51.484134100000006]]},"properties":{"knowledge_grade":"route_bound_model_diagnostic","sector":5,"sample_count":117,"mean_model_rsrp_dbm":-78.7,"mean_observed_rsrp_dbm":-72.8,"anchor_grade":"estimated_reception_center","not_coverage":true}},{"type":"Feature","geometry":{"type":"LineString","coordinates":[[7.409147656122315,51.48190973552967],[7.4091006,51.4835302]]},"properties":{"knowledge_grade":"route_bound_model_diagnostic","sector":6,"sample_count":52,"mean_model_rsrp_dbm":-77.8,"mean_observed_rsrp_dbm":-73.3,"anchor_grade":"estimated_reception_center","not_coverage":true}},{"type":"Feature","geometry":{"type":"LineString","coordinates":[[7.41585710175252,51.48642159289131],[7.4131004,51.48504140000001]]},"properties":{"knowledge_grade":"route_bound_model_diagnostic","sector":0,"sample_count":15,"mean_model_rsrp_dbm":-95.8,"mean_observed_rsrp_dbm":-100.6,"anchor_grade":"estimated_reception_center","not_coverage":true}},{"type":"Feature","geometry":{"type":"LineString","coordinates":[[7.416326811242103,51.49137519949671],[7.413222,51.4850048]]},"properties":{"knowledge_grade":"route_bound_model_diagnostic","sector":1,"sample_count":17,"mean_model_rsrp_dbm":-94.7,"mean_observed_rsrp_dbm":-100.0,"anchor_grade":"estimated_reception_center","not_coverage":true}},{"type":"Feature","geometry":{"type":"LineString","coordinates":[[7.416326811242103,51.49137519949671],[7.4172506,51.48731440000001]]},"properties":{"knowledge_grade":"route_bound_model_diagnostic","sector":2,"sample_count":419,"mean_model_rsrp_dbm":-82.8,"mean_observed_rsrp_dbm":-83.6,"anchor_grade":"estimated_reception_center","not_coverage":true}},{"type":"Feature","geometry":{"type":"LineString","coordinates":[[7.416326811242103,51.49137519949671],[7.4165769,51.4913032]]},"properties":{"knowledge_grade":"route_bound_model_diagnostic","sector":3,"sample_count":10,"mean_model_rsrp_dbm":-78.3,"mean_observed_rsrp_dbm":-89.4,"anchor_grade":"estimated_reception_center","not_coverage":true}},{"type":"Feature","geometry":{"type":"LineString","coordinates":[[7.416326811242103,51.49137519949671],[7.4194869,51.4929998]]},"properties":{"knowledge_grade":"route_bound_model_diagnostic","sector":4,"sample_count":16,"mean_model_rsrp_dbm":-82.3,"mean_observed_rsrp_dbm":-87.7,"anchor_grade":"estimated_reception_center","not_coverage":true}},{"type":"Feature","geometry":{"type":"LineString","coordinates":[[7.416326811242103,51.49137519949671],[7.418303,51.4947366]]},"properties":{"knowledge_grade":"route_bound_model_diagnostic","sector":5,"sample_count":189,"mean_model_rsrp_dbm":-85.3,"mean_observed_rsrp_dbm":-86.5,"anchor_grade":"estimated_reception_center","not_coverage":true}},{"type":"Feature","geometry":{"type":"LineString","coordinates":[[7.416326811242103,51.49137519949671],[7.4126177,51.494070799999996]]},"properties":{"knowledge_grade":"route_bound_model_diagnostic","sector":6,"sample_count":671,"mean_model_rsrp_dbm":-87.4,"mean_observed_rsrp_dbm":-88.3,"anchor_grade":"estimated_reception_center","not_coverage":true}},{"type":"Feature","geometry":{"type":"LineString","coordinates":[[7.411416010002732,51.493928793118236],[7.4072552,51.4933741]]},"properties":{"knowledge_grade":"route_bound_model_diagnostic","sector":0,"sample_count":45,"mean_model_rsrp_dbm":-74.3,"mean_observed_rsrp_dbm":-70.9,"anchor_grade":"estimated_reception_center","not_coverage":true}},{"type":"Feature","geometry":{"type":"LineString","coordinates":[[7.411416010002732,51.493928793118236],[7.416861,51.494692]]},"properties":{"knowledge_grade":"route_bound_model_diagnostic","sector":4,"sample_count":62,"mean_model_rsrp_dbm":-77.8,"mean_observed_rsrp_dbm":-72.0,"anchor_grade":"estimated_reception_center","not_coverage":true}},{"type":"Feature","geometry":{"type":"LineString","coordinates":[[7.407499588225461,51.493453110364285],[7.4068727,51.4932126]]},"properties":{"knowledge_grade":"route_bound_model_diagnostic","sector":0,"sample_count":699,"mean_model_rsrp_dbm":-74.5,"mean_observed_rsrp_dbm":-74.5,"anchor_grade":"estimated_reception_center","not_coverage":true}},{"type":"Feature","geometry":{"type":"LineString","coordinates":[[7.407499588225461,51.493453110364285],[7.4068887,51.49294110000001]]},"properties":{"knowledge_grade":"route_bound_model_diagnostic","sector":1,"sample_count":15,"mean_model_rsrp_dbm":-74.5,"mean_observed_rsrp_dbm":-75.7,"anchor_grade":"estimated_reception_center","not_coverage":true}},{"type":"Feature","geometry":{"type":"LineString","coordinates":[[7.407499588225461,51.493453110364285],[7.4117635,51.4939981]]},"properties":{"knowledge_grade":"route_bound_model_diagnostic","sector":4,"sample_count":51,"mean_model_rsrp_dbm":-76.7,"mean_observed_rsrp_dbm":-75.5,"anchor_grade":"estimated_reception_center","not_coverage":true}},{"type":"Feature","geometry":{"type":"LineString","coordinates":[[7.407499588225461,51.493453110364285],[7.4071683,51.4938897]]},"properties":{"knowledge_grade":"route_bound_model_diagnostic","sector":6,"sample_count":14,"mean_model_rsrp_dbm":-77.2,"mean_observed_rsrp_dbm":-74.1,"anchor_grade":"estimated_reception_center","not_coverage":true}},{"type":"Feature","geometry":{"type":"LineString","coordinates":[[7.407499588225461,51.493453110364285],[7.4068617,51.4934802]]},"properties":{"knowledge_grade":"route_bound_model_diagnostic","sector":7,"sample_count":200,"mean_model_rsrp_dbm":-75.0,"mean_observed_rsrp_dbm":-74.1,"anchor_grade":"estimated_reception_center","not_coverage":true}},{"type":"Feature","geometry":{"type":"LineString","coordinates":[[7.416378836831024,51.4865382520709],[7.4132829,51.48488989999999]]},"properties":{"knowledge_grade":"route_bound_model_diagnostic","sector":0,"sample_count":12,"mean_model_rsrp_dbm":-95.6,"mean_observed_rsrp_dbm":-101.4,"anchor_grade":"estimated_reception_center","not_coverage":true}},{"type":"Feature","geometry":{"type":"LineString","coordinates":[[7.416378836831024,51.4865382520709],[7.4165542,51.4860215]]},"properties":{"knowledge_grade":"route_bound_model_diagnostic","sector":2,"sample_count":11,"mean_model_rsrp_dbm":-88.9,"mean_observed_rsrp_dbm":-98.0,"anchor_grade":"estimated_reception_center","not_coverage":true}},{"type":"Feature","geometry":{"type":"LineString","coordinates":[[7.416378836831024,51.4865382520709],[7.417428,51.4877919]]},"properties":{"knowledge_grade":"route_bound_model_diagnostic","sector":5,"sample_count":16,"mean_model_rsrp_dbm":-92.1,"mean_observed_rsrp_dbm":-97.9,"anchor_grade":"estimated_reception_center","not_coverage":true}},{"type":"Feature","geometry":{"type":"LineString","coordinates":[[7.416497618227749,51.48658693712185],[7.4174316,51.4877395]]},"properties":{"knowledge_grade":"route_bound_model_diagnostic","sector":5,"sample_count":10,"mean_model_rsrp_dbm":-90.2,"mean_observed_rsrp_dbm":-96.1,"anchor_grade":"estimated_reception_center","not_coverage":true}},{"type":"Feature","geometry":{"type":"LineString","coordinates":[[7.415828043817886,51.49151341314918],[7.417281,51.48754490000001]]},"properties":{"knowledge_grade":"route_bound_model_diagnostic","sector":2,"sample_count":248,"mean_model_rsrp_dbm":-83.0,"mean_observed_rsrp_dbm":-81.3,"anchor_grade":"estimated_reception_center","not_coverage":true}},{"type":"Feature","geometry":{"type":"LineString","coordinates":[[7.415828043817886,51.49151341314918],[7.4171484,51.4910701]]},"properties":{"knowledge_grade":"route_bound_model_diagnostic","sector":3,"sample_count":43,"mean_model_rsrp_dbm":-79.8,"mean_observed_rsrp_dbm":-86.3,"anchor_grade":"estimated_reception_center","not_coverage":true}},{"type":"Feature","geometry":{"type":"LineString","coordinates":[[7.415828043817886,51.49151341314918],[7.4191111,51.4926674]]},"properties":{"knowledge_grade":"route_bound_model_diagnostic","sector":4,"sample_count":66,"mean_model_rsrp_dbm":-87.1,"mean_observed_rsrp_dbm":-89.8,"anchor_grade":"estimated_reception_center","not_coverage":true}},{"type":"Feature","geometry":{"type":"LineString","coordinates":[[7.415828043817886,51.49151341314918],[7.4167416,51.4947649]]},"properties":{"knowledge_grade":"route_bound_model_diagnostic","sector":5,"sample_count":158,"mean_model_rsrp_dbm":-86.1,"mean_observed_rsrp_dbm":-85.0,"anchor_grade":"estimated_reception_center","not_coverage":true}},{"type":"Feature","geometry":{"type":"LineString","coordinates":[[7.415828043817886,51.49151341314918],[7.4136043,51.4943514]]},"properties":{"knowledge_grade":"route_bound_model_diagnostic","sector":6,"sample_count":346,"mean_model_rsrp_dbm":-87.1,"mean_observed_rsrp_dbm":-87.0,"anchor_grade":"estimated_reception_center","not_coverage":true}},{"type":"Feature","geometry":{"type":"LineString","coordinates":[[7.407699158378786,51.493486460781725],[7.406668,51.4932368]]},"properties":{"knowledge_grade":"route_bound_model_diagnostic","sector":0,"sample_count":338,"mean_model_rsrp_dbm":-74.6,"mean_observed_rsrp_dbm":-74.3,"anchor_grade":"estimated_reception_center","not_coverage":true}},{"type":"Feature","geometry":{"type":"LineString","coordinates":[[7.407699158378786,51.493486460781725],[7.4067299,51.4928813]]},"properties":{"knowledge_grade":"route_bound_model_diagnostic","sector":1,"sample_count":13,"mean_model_rsrp_dbm":-76.4,"mean_observed_rsrp_dbm":-74.0,"anchor_grade":"estimated_reception_center","not_coverage":true}},{"type":"Feature","geometry":{"type":"LineString","coordinates":[[7.407699158378786,51.493486460781725],[7.4112791,51.4939519]]},"properties":{"knowledge_grade":"route_bound_model_diagnostic","sector":4,"sample_count":25,"mean_model_rsrp_dbm":-76.8,"mean_observed_rsrp_dbm":-70.7,"anchor_grade":"estimated_reception_center","not_coverage":true}},{"type":"Feature","geometry":{"type":"LineString","coordinates":[[7.407699158378786,51.493486460781725],[7.4068385,51.493576899999994]]},"properties":{"knowledge_grade":"route_bound_model_diagnostic","sector":7,"sample_count":99,"mean_model_rsrp_dbm":-75.5,"mean_observed_rsrp_dbm":-74.1,"anchor_grade":"estimated_reception_center","not_coverage":true}},{"type":"Feature","geometry":{"type":"LineString","coordinates":[[7.411215904471765,51.49390102306721],[7.4077108,51.4934398]]},"properties":{"knowledge_grade":"route_bound_model_diagnostic","sector":0,"sample_count":23,"mean_model_rsrp_dbm":-74.3,"mean_observed_rsrp_dbm":-67.0,"anchor_grade":"estimated_reception_center","not_coverage":true}},{"type":"Feature","geometry":{"type":"LineString","coordinates":[[7.411215904471765,51.49390102306721],[7.4149348,51.4944157]]},"properties":{"knowledge_grade":"route_bound_model_diagnostic","sector":4,"sample_count":34,"mean_model_rsrp_dbm":-78.8,"mean_observed_rsrp_dbm":-68.8,"anchor_grade":"estimated_reception_center","not_coverage":true}}]}